{
  "type": "FeatureCollection",
  "features": [
    {
      "type": "Feature",
      "properties": {
        "norad_id": 43719,
        "name": "HYSIS",
        "group": "resource",
        "lat": -25.204207775131692,
        "lon": -141.88429810635293,
        "alt_km": 640.2356915718929,
        "timestamp": "2025-12-04T21:36:15.532035+00:00",
        "meta_object_name": "HYSIS",
        "meta_object_id": "2018-096A",
        "meta_epoch": "2025-12-04T15:48:22.076640",
        "meta_mean_motion": 14.78609198,
        "meta_eccentricity": 0.0001615,
        "meta_inclination": 98.0108,
        "meta_ra_of_asc_node": 41.6757,
        "meta_arg_of_pericenter": 64.8201,
        "meta_mean_anomaly": 295.3177,
        "meta_ephemeris_type": 0,
        "meta_classification_type": "U",
        "meta_norad_cat_id": 43719,
        "meta_element_set_no": 999,
        "meta_rev_at_epoch": 37867,
        "meta_bstar": 3.5541e-05,
        "meta_mean_motion_dot": 2.08e-06,
        "meta_mean_motion_ddot": 0,
        "tle_line1": "1 43719U 18096A   25338.65858885  .00000208  00000+0  35541-4 0  9993",
        "tle_line2": "2 43719  98.0108  41.6757 0001615  64.8201 295.3177 14.78609198378674"
      },
      "geometry": {
        "type": "Point",
        "coordinates": [
          -141.88429810635293,
          -25.204207775131692
        ]
      }
    },
    {
      "type": "Feature",
      "properties": {
        "norad_id": 43783,
        "name": "KAZSTSAT",
        "group": "resource",
        "lat": -38.066382243444714,
        "lon": -171.4640486282114,
        "alt_km": 578.994932065536,
        "timestamp": "2025-12-04T21:36:15.532046+00:00",
        "meta_object_name": "KAZSTSAT",
        "meta_object_id": "2018-099AB",
        "meta_epoch": "2025-12-04T14:13:34.367232",
        "meta_mean_motion": 14.99310534,
        "meta_eccentricity": 0.00064526,
        "meta_inclination": 97.4554,
        "meta_ra_of_asc_node": 14.128,
        "meta_arg_of_pericenter": 0.8139,
        "meta_mean_anomaly": 359.3094,
        "meta_ephemeris_type": 0,
        "meta_classification_type": "U",
        "meta_norad_cat_id": 43783,
        "meta_element_set_no": 999,
        "meta_rev_at_epoch": 38214,
        "meta_bstar": 0.00027291493,
        "meta_mean_motion_dot": 3.279e-05,
        "meta_mean_motion_ddot": 0,
        "tle_line1": "1 43783U 18099AB  25338.59275888  .00003279  00000+0  27291-3 0  9999",
        "tle_line2": "2 43783  97.4554  14.1280 0006452   0.8139 359.3094 14.99310534382145"
      },
      "geometry": {
        "type": "Point",
        "coordinates": [
          -171.4640486282114,
          -38.066382243444714
        ]
      }
    },
    {
      "type": "Feature",
      "properties": {
        "norad_id": 43831,
        "name": "SAUDISAT 5A",
        "group": "resource",
        "lat": -70.21349617329552,
        "lon": -161.74315050546363,
        "alt_km": 503.670663410202,
        "timestamp": "2025-12-04T21:36:15.532058+00:00",
        "meta_object_name": "SAUDISAT 5A",
        "meta_object_id": "2018-102A",
        "meta_epoch": "2025-12-04T15:46:58.799136",
        "meta_mean_motion": 15.25502465,
        "meta_eccentricity": 0.00117905,
        "meta_inclination": 97.3369,
        "meta_ra_of_asc_node": 39.0058,
        "meta_arg_of_pericenter": 101.017,
        "meta_mean_anomaly": 259.2395,
        "meta_ephemeris_type": 0,
        "meta_classification_type": "U",
        "meta_norad_cat_id": 43831,
        "meta_element_set_no": 999,
        "meta_rev_at_epoch": 38599,
        "meta_bstar": 0.00054386444,
        "meta_mean_motion_dot": 0.00013745,
        "meta_mean_motion_ddot": 0,
        "tle_line1": "1 43831U 18102A   25338.65762499  .00013745  00000+0  54386-3 0  9998",
        "tle_line2": "2 43831  97.3369  39.0058 0011790 101.0170 259.2395 15.25502465385995"
      },
      "geometry": {
        "type": "Point",
        "coordinates": [
          -161.74315050546363,
          -70.21349617329552
        ]
      }
    },
    {
      "type": "Feature",
      "properties": {
        "norad_id": 43833,
        "name": "SAUDISAT 5B",
        "group": "resource",
        "lat": -65.31161359402283,
        "lon": 58.26747648201321,
        "alt_km": 503.879813482743,
        "timestamp": "2025-12-04T21:36:15.532069+00:00",
        "meta_object_name": "SAUDISAT 5B",
        "meta_object_id": "2018-102C",
        "meta_epoch": "2025-12-04T15:35:58.854336",
        "meta_mean_motion": 15.2585925,
        "meta_eccentricity": 0.00125144,
        "meta_inclination": 97.3465,
        "meta_ra_of_asc_node": 41.7223,
        "meta_arg_of_pericenter": 103.5609,
        "meta_mean_anomaly": 256.7025,
        "meta_ephemeris_type": 0,
        "meta_classification_type": "U",
        "meta_norad_cat_id": 43833,
        "meta_element_set_no": 999,
        "meta_rev_at_epoch": 38610,
        "meta_bstar": 0.00050208951,
        "meta_mean_motion_dot": 0.00012822,
        "meta_mean_motion_ddot": 0,
        "tle_line1": "1 43833U 18102C   25338.64998674  .00012822  00000+0  50209-3 0  9990",
        "tle_line2": "2 43833  97.3465  41.7223 0012514 103.5609 256.7025 15.25859250386100"
      },
      "geometry": {
        "type": "Point",
        "coordinates": [
          58.26747648201321,
          -65.31161359402283
        ]
      }
    },
    {
      "type": "Feature",
      "properties": {
        "norad_id": 44622,
        "name": "GAOFEN-10R",
        "group": "resource",
        "lat": 12.662855183948077,
        "lon": -75.44051605892142,
        "alt_km": 618.2099623998138,
        "timestamp": "2025-12-04T21:36:15.532079+00:00",
        "meta_object_name": "GAOFEN-10R",
        "meta_object_id": "2019-066A",
        "meta_epoch": "2025-12-04T15:04:06.413664",
        "meta_mean_motion": 14.8274759,
        "meta_eccentricity": 0.00082358,
        "meta_inclination": 98.0266,
        "meta_ra_of_asc_node": 286.103,
        "meta_arg_of_pericenter": 64.1751,
        "meta_mean_anomaly": 296.031,
        "meta_ephemeris_type": 0,
        "meta_classification_type": "U",
        "meta_norad_cat_id": 44622,
        "meta_element_set_no": 999,
        "meta_rev_at_epoch": 33354,
        "meta_bstar": 0.0004804843,
        "meta_mean_motion_dot": 3.83e-05,
        "meta_mean_motion_ddot": 0,
        "tle_line1": "1 44622U 19066A   25338.62785201  .00003830  00000+0  48048-3 0  9992",
        "tle_line2": "2 44622  98.0266 286.1030 0008235  64.1751 296.0310 14.82747590333549"
      },
      "geometry": {
        "type": "Point",
        "coordinates": [
          -75.44051605892142,
          12.662855183948077
        ]
      }
    },
    {
      "type": "Feature",
      "properties": {
        "norad_id": 44804,
        "name": "CARTOSAT-3",
        "group": "resource",
        "lat": -47.24066457670769,
        "lon": -149.56372130619926,
        "alt_km": 519.0993845355688,
        "timestamp": "2025-12-04T21:36:15.532089+00:00",
        "meta_object_name": "CARTOSAT-3",
        "meta_object_id": "2019-081A",
        "meta_epoch": "2025-12-04T15:51:51.225120",
        "meta_mean_motion": 15.19259898,
        "meta_eccentricity": 0.00138947,
        "meta_inclination": 97.4601,
        "meta_ra_of_asc_node": 38.3467,
        "meta_arg_of_pericenter": 112.593,
        "meta_mean_anomaly": 247.6776,
        "meta_ephemeris_type": 0,
        "meta_classification_type": "U",
        "meta_norad_cat_id": 44804,
        "meta_element_set_no": 999,
        "meta_rev_at_epoch": 33393,
        "meta_bstar": 0.00036319045,
        "meta_mean_motion_dot": 7.61e-05,
        "meta_mean_motion_ddot": 0,
        "tle_line1": "1 44804U 19081A   25338.66100955  .00007610  00000+0  36319-3 0  9990",
        "tle_line2": "2 44804  97.4601  38.3467 0013894 112.5930 247.6776 15.19259898333933"
      },
      "geometry": {
        "type": "Point",
        "coordinates": [
          -149.56372130619926,
          -47.24066457670769
        ]
      }
    },
    {
      "type": "Feature",
      "properties": {
        "norad_id": 44819,
        "name": "GAOFEN-12 01",
        "group": "resource",
        "lat": -19.99607426835946,
        "lon": -11.749162935386254,
        "alt_km": 631.9710601057004,
        "timestamp": "2025-12-04T21:36:15.532100+00:00",
        "meta_object_name": "GAOFEN-12 01",
        "meta_object_id": "2019-082A",
        "meta_epoch": "2025-12-04T15:12:27.569952",
        "meta_mean_motion": 14.80642839,
        "meta_eccentricity": 0.00012232,
        "meta_inclination": 97.8128,
        "meta_ra_of_asc_node": 345.1274,
        "meta_arg_of_pericenter": 289.8207,
        "meta_mean_anomaly": 70.2874,
        "meta_ephemeris_type": 0,
        "meta_classification_type": "U",
        "meta_norad_cat_id": 44819,
        "meta_element_set_no": 999,
        "meta_rev_at_epoch": 32530,
        "meta_bstar": 0.00013647823,
        "meta_mean_motion_dot": 9.97e-06,
        "meta_mean_motion_ddot": 0,
        "tle_line1": "1 44819U 19082A   25338.63365243  .00000997  00000+0  13648-3 0  9998",
        "tle_line2": "2 44819  97.8128 345.1274 0001223 289.8207  70.2874 14.80642839325309"
      },
      "geometry": {
        "type": "Point",
        "coordinates": [
          -11.749162935386254,
          -19.99607426835946
        ]
      }
    }
  ]
}